{
  "type": "FeatureCollection",
  "features": [
    {
      "type": "Feature",
      "properties": {
        "norad_id": 41859,
        "name": "GSAT0207 (GALILEO 15)",
        "group": "gnss",
        "lat": -52.67252217177281,
        "lon": 41.591103830070445,
        "alt_km": 23223.28643360087,
        "timestamp": "2025-12-03T06:58:43.478835+00:00",
        "meta_object_name": "GSAT0207 (GALILEO 15)",
        "meta_object_id": "2016-069A",
        "meta_epoch": "2025-11-30T11:31:32.297952",
        "meta_mean_motion": 1.70474248,
        "meta_eccentricity": 0.00020596,
        "meta_inclination": 55.375,
        "meta_ra_of_asc_node": 106.5899,
        "meta_arg_of_pericenter": 325.7449,
        "meta_mean_anomaly": 34.2162,
        "meta_ephemeris_type": 0,
        "meta_classification_type": "U",
        "meta_norad_cat_id": 41859,
        "meta_element_set_no": 999,
        "meta_rev_at_epoch": 5601,
        "meta_bstar": 0,
        "meta_mean_motion_dot": 4.7e-07,
        "meta_mean_motion_ddot": 0,
        "tle_line1": "1 41859U 16069A   25334.48023493  .00000047  00000+0  00000+0 0  9998",
        "tle_line2": "2 41859  55.3750 106.5899 0002059 325.7449  34.2162  1.70474248 56019"
      },
      "geometry": {
        "type": "Point",
        "coordinates": [
          41.591103830070445,
          -52.67252217177281
        ]
      }
    },
    {
      "type": "Feature",
      "properties": {
        "norad_id": 41860,
        "name": "GSAT0212 (GALILEO 16)",
        "group": "gnss",
        "lat": 12.074765129647162,
        "lon": 114.98216702222736,
        "alt_km": 23214.500581523105,
        "timestamp": "2025-12-03T06:58:43.478855+00:00",
        "meta_object_name": "GSAT0212 (GALILEO 16)",
        "meta_object_id": "2016-069B",
        "meta_epoch": "2025-12-02T02:14:50.667072",
        "meta_mean_motion": 1.70474451,
        "meta_eccentricity": 0.0002264,
        "meta_inclination": 55.3734,
        "meta_ra_of_asc_node": 106.5405,
        "meta_arg_of_pericenter": 34.5338,
        "meta_mean_anomaly": 325.4448,
        "meta_ephemeris_type": 0,
        "meta_classification_type": "U",
        "meta_norad_cat_id": 41860,
        "meta_element_set_no": 999,
        "meta_rev_at_epoch": 5629,
        "meta_bstar": 0,
        "meta_mean_motion_dot": 3.3e-07,
        "meta_mean_motion_ddot": 0,
        "tle_line1": "1 41860U 16069B   25336.09364198  .00000033  00000+0  00000+0 0  9994",
        "tle_line2": "2 41860  55.3734 106.5405 0002264  34.5338 325.4448  1.70474451 56294"
      },
      "geometry": {
        "type": "Point",
        "coordinates": [
          114.98216702222736,
          12.074765129647162
        ]
      }
    },
    {
      "type": "Feature",
      "properties": {
        "norad_id": 41861,
        "name": "GSAT0213 (GALILEO 17)",
        "group": "gnss",
        "lat": 24.97047772609536,
        "lon": -92.26418467716992,
        "alt_km": 23223.39675335215,
        "timestamp": "2025-12-03T06:58:43.478873+00:00",
        "meta_object_name": "GSAT0213 (GALILEO 17)",
        "meta_object_id": "2016-069C",
        "meta_epoch": "2025-12-01T20:59:28.954752",
        "meta_mean_motion": 1.70474717,
        "meta_eccentricity": 0.00020626,
        "meta_inclination": 55.3756,
        "meta_ra_of_asc_node": 106.5542,
        "meta_arg_of_pericenter": 284.0381,
        "meta_mean_anomaly": 75.9044,
        "meta_ephemeris_type": 0,
        "meta_classification_type": "U",
        "meta_norad_cat_id": 41861,
        "meta_element_set_no": 999,
        "meta_rev_at_epoch": 5615,
        "meta_bstar": 0,
        "meta_mean_motion_dot": 3.5e-07,
        "meta_mean_motion_ddot": 0,
        "tle_line1": "1 41861U 16069C   25335.87464068  .00000035  00000+0  00000+0 0  9999",
        "tle_line2": "2 41861  55.3756 106.5542 0002062 284.0381  75.9044  1.70474717 56156"
      },
      "geometry": {
        "type": "Point",
        "coordinates": [
          -92.26418467716992,
          24.97047772609536
        ]
      }
    },
    {
      "type": "Feature",
      "properties": {
        "norad_id": 41862,
        "name": "GSAT0214 (GALILEO 18)",
        "group": "gnss",
        "lat": 45.17697672955828,
        "lon": 150.50371064682503,
        "alt_km": 23218.74553568712,
        "timestamp": "2025-12-03T06:58:43.478890+00:00",
        "meta_object_name": "GSAT0214 (GALILEO 18)",
        "meta_object_id": "2016-069D",
        "meta_epoch": "2025-12-02T14:34:22.700352",
        "meta_mean_motion": 1.70474512,
        "meta_eccentricity": 0.0001109,
        "meta_inclination": 55.3745,
        "meta_ra_of_asc_node": 106.5268,
        "meta_arg_of_pericenter": 291.2976,
        "meta_mean_anomaly": 68.6511,
        "meta_ephemeris_type": 0,
        "meta_classification_type": "U",
        "meta_norad_cat_id": 41862,
        "meta_element_set_no": 999,
        "meta_rev_at_epoch": 5629,
        "meta_bstar": 0,
        "meta_mean_motion_dot": 2.8e-07,
        "meta_mean_motion_ddot": 0,
        "tle_line1": "1 41862U 16069D   25336.60720718  .00000028  00000+0  00000+0 0  9991",
        "tle_line2": "2 41862  55.3745 106.5268 0001109 291.2976  68.6511  1.70474512 56297"
      },
      "geometry": {
        "type": "Point",
        "coordinates": [
          150.50371064682503,
          45.17697672955828
        ]
      }
    },
    {
      "type": "Feature",
      "properties": {
        "norad_id": 42709,
        "name": "SES-15 (WAAS/PRN 133)",
        "group": "gnss",
        "lat": 0.04069963665360503,
        "lon": 47.847595535224436,
        "alt_km": 35788.207691544296,
        "timestamp": "2025-12-03T06:58:43.478908+00:00",
        "meta_object_name": "SES-15 (WAAS/PRN 133)",
        "meta_object_id": "2017-026A",
        "meta_epoch": "2025-12-02T12:16:38.557632",
        "meta_mean_motion": 1.00268611,
        "meta_eccentricity": 3.415e-05,
        "meta_inclination": 0.02,
        "meta_ra_of_asc_node": 343.4979,
        "meta_arg_of_pericenter": 269.9972,
        "meta_mean_anomaly": 233.0968,
        "meta_ephemeris_type": 0,
        "meta_classification_type": "U",
        "meta_norad_cat_id": 42709,
        "meta_element_set_no": 999,
        "meta_rev_at_epoch": 546,
        "meta_bstar": 0,
        "meta_mean_motion_dot": 8.1e-07,
        "meta_mean_motion_ddot": 0,
        "tle_line1": "1 42709U 17026A   25336.51155738  .00000081  00000+0  00000+0 0  9999",
        "tle_line2": "2 42709   0.0200 343.4979 0000341 269.9972 233.0968  1.00268611  5468"
      },
      "geometry": {
        "type": "Point",
        "coordinates": [
          47.847595535224436,
          0.04069963665360503
        ]
      }
    },
    {
      "type": "Feature",
      "properties": {
        "norad_id": 42738,
        "name": "QZS-2 (QZSS/PRN 194)",
        "group": "gnss",
        "lat": 38.111158125758735,
        "lon": -43.53233094972777,
        "alt_km": 38845.42048512351,
        "timestamp": "2025-12-03T06:58:43.478926+00:00",
        "meta_object_name": "QZS-2 (QZSS/PRN 194)",
        "meta_object_id": "2017-028A",
        "meta_epoch": "2025-12-02T14:25:21.359424",
        "meta_mean_motion": 1.0028572,
        "meta_eccentricity": 0.075922,
        "meta_inclination": 39.7306,
        "meta_ra_of_asc_node": 246.0318,
        "meta_arg_of_pericenter": 269.3692,
        "meta_mean_anomaly": 274.0368,
        "meta_ephemeris_type": 0,
        "meta_classification_type": "U",
        "meta_norad_cat_id": 42738,
        "meta_element_set_no": 999,
        "meta_rev_at_epoch": 565,
        "meta_bstar": 0,
        "meta_mean_motion_dot": -1.54e-06,
        "meta_mean_motion_ddot": 0,
        "tle_line1": "1 42738U 17028A   25336.60094166 -.00000154  00000+0  00000+0 0  9992",
        "tle_line2": "2 42738  39.7306 246.0318 0759220 269.3692 274.0368  1.00285720  5651"
      },
      "geometry": {
        "type": "Point",
        "coordinates": [
          -43.53233094972777,
          38.111158125758735
        ]
      }
    },
    {
      "type": "Feature",
      "properties": {
        "norad_id": 42917,
        "name": "QZS-3 (QZSS/PRN 199)",
        "group": "gnss",
        "lat": 0.06370490787527017,
        "lon": -55.97422030176226,
        "alt_km": 35779.13075218597,
        "timestamp": "2025-12-03T06:58:43.478945+00:00",
        "meta_object_name": "QZS-3 (QZSS/PRN 199)",
        "meta_object_id": "2017-048A",
        "meta_epoch": "2025-12-02T15:57:07.366176",
        "meta_mean_motion": 1.00276367,
        "meta_eccentricity": 0.00021229,
        "meta_inclination": 0.0748,
        "meta_ra_of_asc_node": 223.7076,
        "meta_arg_of_pericenter": 30.1234,
        "meta_mean_anomaly": 184.1745,
        "meta_ephemeris_type": 0,
        "meta_classification_type": "U",
        "meta_norad_cat_id": 42917,
        "meta_element_set_no": 999,
        "meta_rev_at_epoch": 3028,
        "meta_bstar": 0,
        "meta_mean_motion_dot": -3.27e-06,
        "meta_mean_motion_ddot": 0,
        "tle_line1": "1 42917U 17048A   25336.66466859 -.00000327  00000+0  00000+0 0  9993",
        "tle_line2": "2 42917   0.0748 223.7076 0002122  30.1234 184.1745  1.00276367 30286"
      },
      "geometry": {
        "type": "Point",
        "coordinates": [
          -55.97422030176226,
          0.06370490787527017
        ]
      }
    }
  ]
}